[{"OBJECT_NAME":"STARLINK-4000","OBJECT_ID":"2022-052H","EPOCH":"2026-03-09T20:49:44.253120","MEAN_MOTION":15.08841209,"ECCENTRICITY":0.00013298,"INCLINATION":53.2186,"RA_OF_ASC_NODE":283.1015,"ARG_OF_PERICENTER":76.0724,"MEAN_ANOMALY":284.0416,"EPHEMERIS_TYPE":0,"CLASSIFICATION_TYPE":"U","NORAD_CAT_ID":52605,"ELEMENT_SET_NO":999,"REV_AT_EPOCH":21081,"BSTAR":-0.00015962011,"MEAN_MOTION_DOT":-2.827e-5,"MEAN_MOTION_DDOT":0},{"OBJECT_NAME":"LEMUR-2-NEUROSPICY","OBJECT_ID":"2025-061E","EPOCH":"2026-03-09T21:29:47.005152","MEAN_MOTION":15.13370729,"ECCENTRICITY":0.00155025,"INCLINATION":97.5545,"RA_OF_ASC_NODE":45.3302,"ARG_OF_PERICENTER":239.5457,"MEAN_ANOMALY":120.4243,"EPHEMERIS_TYPE":0,"CLASSIFICATION_TYPE":"U","NORAD_CAT_ID":63355,"ELEMENT_SET_NO":999,"REV_AT_EPOCH":5259,"BSTAR":0.00032487858,"MEAN_MOTION_DOT":5.745e-5,"MEAN_MOTION_DDOT":0}]
